start=new Date('2022-06-16T00:00:00.000Z').valueOf();
sats=[{"DECAY_DATE":null,"BSTAR":"-0.00004451100000","LAUNCH_DATE":"2020-06-04","INCLINATION":"53.0556","MEAN_ELEMENT_THEORY":"SGP4","RA_OF_ASC_NODE":"54.6508","CLASSIFICATION_TYPE":"U","REF_FRAME":"TEME","ARG_OF_PERICENTER":"69.7248","OBJECT_NAME":"STARLINK-1401","CENTER_NAME":"EARTH","PERIAPSIS":"546.210","REV_AT_EPOCH":"11305","EPOCH":"2022-06-15T20:21:28.238400","OBJECT_ID":"2020-035AD","FILE":"3496908","OBJECT_TYPE":"PAYLOAD","ECCENTRICITY":"0.00014670","PERIOD":"95.592","MEAN_MOTION":"15.06396040","MEAN_MOTION_DOT":"-0.00000944","APOAPSIS":"548.242","MEAN_MOTION_DDOT":"0.0000000000000","COUNTRY_CODE":"US","MEAN_ANOMALY":"290.3898","RCS_SIZE":"LARGE","TLE_LINE1":"1 45684U 20035AD  22166.84824350 -.00000944  00000-0 -44511-4 0  9996","TIME_SYSTEM":"UTC","TLE_LINE2":"2 45684  53.0556  54.6508 0001467  69.7248 290.3898 15.06396040113058","SEMIMAJOR_AXIS":"6925.361","EPHEMERIS_TYPE":"0","ELEMENT_SET_NO":"999","GP_ID":"206213480","NORAD_CAT_ID":"45684","SITE":"AFETR"},{"PERIAPSIS":"545.925","OBJECT_TYPE":"PAYLOAD","ECCENTRICITY":"0.00019120","EPOCH":"2022-06-15T20:16:09.653088","REV_AT_EPOCH":"11305","OBJECT_ID":"2020-035AE","FILE":"3496909","PERIOD":"95.593","BSTAR":"0.00000533220000","LAUNCH_DATE":"2020-06-04","DECAY_DATE":null,"MEAN_ELEMENT_THEORY":"SGP4","INCLINATION":"53.0549","CLASSIFICATION_TYPE":"U","RA_OF_ASC_NODE":"54.6784","OBJECT_NAME":"STARLINK-1402","CENTER_NAME":"EARTH","REF_FRAME":"TEME","ARG_OF_PERICENTER":"53.1843","TLE_LINE2":"2 45685  53.0549  54.6784 0001912  53.1843 306.9321 15.06388379113051","TIME_SYSTEM":"UTC","EPHEMERIS_TYPE":"0","SEMIMAJOR_AXIS":"6925.384","GP_ID":"206213483","ELEMENT_SET_NO":"999","NORAD_CAT_ID":"45685","SITE":"AFETR","MEAN_MOTION_DDOT":"0.0000000000000","MEAN_ANOMALY":"306.9321","COUNTRY_CODE":"US","MEAN_MOTION":"15.06388379","APOAPSIS":"548.573","MEAN_MOTION_DOT":"-0.00000202","TLE_LINE1":"1 45685U 20035AE  22166.84455617 -.00000202  00000-0  53322-5 0  9990","RCS_SIZE":"LARGE"},{"SEMIMAJOR_AXIS":"6925.350","EPHEMERIS_TYPE":"0","TIME_SYSTEM":"UTC","TLE_LINE2":"2 45686  53.0562  54.6980 0004337  23.8526 336.2663 15.06399421113461","SITE":"AFETR","NORAD_CAT_ID":"45686","ELEMENT_SET_NO":"999","GP_ID":"206235696","RCS_SIZE":"LARGE","TLE_LINE1":"1 45686U 20035AF  22166.83718390  .00000277  00000-0  37541-4 0  9995","MEAN_MOTION":"15.06399421","MEAN_MOTION_DOT":"0.00000277","APOAPSIS":"550.219","MEAN_MOTION_DDOT":"0.0000000000000","MEAN_ANOMALY":"336.2663","COUNTRY_CODE":"US","PERIAPSIS":"544.212","PERIOD":"95.592","REV_AT_EPOCH":"11346","EPOCH":"2022-06-15T20:05:32.688960","FILE":"3496999","OBJECT_ID":"2020-035AF","ECCENTRICITY":"0.00043370","OBJECT_TYPE":"PAYLOAD","INCLINATION":"53.0562","MEAN_ELEMENT_THEORY":"SGP4","DECAY_DATE":null,"LAUNCH_DATE":"2020-06-04","BSTAR":"0.00003754100000","REF_FRAME":"TEME","ARG_OF_PERICENTER":"23.8526","OBJECT_NAME":"STARLINK-1404","CENTER_NAME":"EARTH","RA_OF_ASC_NODE":"54.6980","CLASSIFICATION_TYPE":"U"},{"RA_OF_ASC_NODE":"54.7223","CLASSIFICATION_TYPE":"U","REF_FRAME":"TEME","ARG_OF_PERICENTER":"59.4420","OBJECT_NAME":"STARLINK-1408","CENTER_NAME":"EARTH","DECAY_DATE":null,"LAUNCH_DATE":"2020-06-04","BSTAR":"0.00000042379000","INCLINATION":"53.0572","MEAN_ELEMENT_THEORY":"SGP4","EPOCH":"2022-06-15T19:54:55.406880","REV_AT_EPOCH":"11304","OBJECT_ID":"2020-035AH","FILE":"3496909","ECCENTRICITY":"0.00016260","OBJECT_TYPE":"PAYLOAD","PERIOD":"95.592","PERIAPSIS":"546.086","MEAN_MOTION":"15.06400388","MEAN_MOTION_DOT":"-0.00000275","APOAPSIS":"548.338","MEAN_MOTION_DDOT":"0.0000000000000","COUNTRY_CODE":"US","MEAN_ANOMALY":"300.6729","RCS_SIZE":"LARGE","TLE_LINE1":"1 45688U 20035AH  22166.82980795 -.00000275  00000-0  42379-6 0  9992","ELEMENT_SET_NO":"999","GP_ID":"206213486","SITE":"AFETR","NORAD_CAT_ID":"45688","TIME_SYSTEM":"UTC","TLE_LINE2":"2 45688  53.0572  54.7223 0001626  59.4420 300.6729 15.06400388113048","SEMIMAJOR_AXIS":"6925.347","EPHEMERIS_TYPE":"0"},{"ARG_OF_PERICENTER":"65.3335","REF_FRAME":"TEME","CENTER_NAME":"EARTH","OBJECT_NAME":"STARLINK-1413","RA_OF_ASC_NODE":"56.7123","CLASSIFICATION_TYPE":"U","INCLINATION":"53.0572","MEAN_ELEMENT_THEORY":"SGP4","DECAY_DATE":null,"BSTAR":"-0.00002684900000","LAUNCH_DATE":"2020-06-04","PERIOD":"95.593","FILE":"3496794","OBJECT_ID":"2020-035AJ","REV_AT_EPOCH":"11330","EPOCH":"2022-06-15T09:23:19.120992","ECCENTRICITY":"0.00016810","OBJECT_TYPE":"PAYLOAD","PERIAPSIS":"546.090","RCS_SIZE":"LARGE","TLE_LINE1":"1 45689U 20035AJ  22166.39119353 -.00000681  00000-0 -26849-4 0  9993","APOAPSIS":"548.419","MEAN_MOTION_DOT":"-0.00000681","MEAN_MOTION":"15.06386621","MEAN_ANOMALY":"294.7829","COUNTRY_CODE":"US","MEAN_MOTION_DDOT":"0.0000000000000","SITE":"AFETR","NORAD_CAT_ID":"45689","ELEMENT_SET_NO":"999","GP_ID":"206204509","SEMIMAJOR_AXIS":"6925.390","EPHEMERIS_TYPE":"0","TIME_SYSTEM":"UTC","TLE_LINE2":"2 45689  53.0572  56.7123 0001681  65.3335 294.7829 15.06386621113308"},{"TLE_LINE2":"2 45690  53.0015  54.7284 0001633  69.1910 290.9253 15.05599734113002","TIME_SYSTEM":"UTC","SEMIMAJOR_AXIS":"6927.802","EPHEMERIS_TYPE":"0","ELEMENT_SET_NO":"999","GP_ID":"206213508","NORAD_CAT_ID":"45690","SITE":"AFETR","MEAN_MOTION_DOT":"-0.00003784","APOAPSIS":"550.799","MEAN_MOTION":"15.05599734","MEAN_ANOMALY":"290.9253","COUNTRY_CODE":"US","MEAN_MOTION_DDOT":"0.0000000000000","RCS_SIZE":"LARGE","TLE_LINE1":"1 45690U 20035AK  22166.83357667 -.00003784  00000-0 -24050-3 0  9994","PERIAPSIS":"548.536","FILE":"3496910","OBJECT_ID":"2020-035AK","EPOCH":"2022-06-15T20:00:21.024288","REV_AT_EPOCH":"11300","ECCENTRICITY":"0.00016330","OBJECT_TYPE":"PAYLOAD","PERIOD":"95.643","DECAY_DATE":null,"BSTAR":"-0.00024050000000","LAUNCH_DATE":"2020-06-04","INCLINATION":"53.0015","MEAN_ELEMENT_THEORY":"SGP4","RA_OF_ASC_NODE":"54.7284","CLASSIFICATION_TYPE":"U","ARG_OF_PERICENTER":"69.1910","REF_FRAME":"TEME","CENTER_NAME":"EARTH","OBJECT_NAME":"STARLINK-1414"},{"APOAPSIS":"548.528","MEAN_MOTION_DOT":"-0.00001614","MEAN_MOTION":"15.06397411","MEAN_ANOMALY":"285.9671","COUNTRY_CODE":"US","MEAN_MOTION_DDOT":"0.0000000000000","RCS_SIZE":"LARGE","TLE_LINE1":"1 45691U 20035AL  22166.84087550 -.00001614  00000-0 -89472-4 0  9997","ELEMENT_SET_NO":"999","GP_ID":"206215444","NORAD_CAT_ID":"45691","SITE":"AFETR","TLE_LINE2":"2 45691  53.0541  54.6764 0001886  74.1525 285.9671 15.06397411113453","TIME_SYSTEM":"UTC","SEMIMAJOR_AXIS":"6925.356","EPHEMERIS_TYPE":"0","RA_OF_ASC_NODE":"54.6764","CLASSIFICATION_TYPE":"U","ARG_OF_PERICENTER":"74.1525","REF_FRAME":"TEME","CENTER_NAME":"EARTH","OBJECT_NAME":"STARLINK-1415","DECAY_DATE":null,"BSTAR":"-0.00008947200000","LAUNCH_DATE":"2020-06-04","INCLINATION":"53.0541","MEAN_ELEMENT_THEORY":"SGP4","FILE":"3496981","OBJECT_ID":"2020-035AL","EPOCH":"2022-06-15T20:10:51.643200","REV_AT_EPOCH":"11345","OBJECT_TYPE":"PAYLOAD","ECCENTRICITY":"0.00018860","PERIOD":"95.592","PERIAPSIS":"545.915"},{"BSTAR":"0.00002568300000","LAUNCH_DATE":"2020-06-04","DECAY_DATE":null,"MEAN_ELEMENT_THEORY":"SGP4","INCLINATION":"53.0540","CLASSIFICATION_TYPE":"U","RA_OF_ASC_NODE":"54.7184","OBJECT_NAME":"STARLINK-1416","CENTER_NAME":"EARTH","REF_FRAME":"TEME","ARG_OF_PERICENTER":"68.9845","PERIAPSIS":"546.074","ECCENTRICITY":"0.00016470","OBJECT_TYPE":"PAYLOAD","EPOCH":"2022-06-15T20:00:14.188320","REV_AT_EPOCH":"11305","OBJECT_ID":"2020-035AM","FILE":"3496910","PERIOD":"95.592","MEAN_MOTION_DDOT":"0.0000000000000","COUNTRY_CODE":"US","MEAN_ANOMALY":"291.1320","MEAN_MOTION":"15.06399787","APOAPSIS":"548.355","MEAN_MOTION_DOT":"0.00000101","TLE_LINE1":"1 45692U 20035AM  22166.83349755  .00000101  00000-0  25683-4 0  9997","RCS_SIZE":"LARGE","TIME_SYSTEM":"UTC","TLE_LINE2":"2 45692  53.0540  54.7184 0001647  68.9845 291.1320 15.06399787113055","EPHEMERIS_TYPE":"0","SEMIMAJOR_AXIS":"6925.349","GP_ID":"206214013","ELEMENT_SET_NO":"999","SITE":"AFETR","NORAD_CAT_ID":"45692"},{"PERIOD":"95.592","EPOCH":"2022-06-15T20:26:46.221504","REV_AT_EPOCH":"11305","FILE":"3496910","OBJECT_ID":"2020-035AN","OBJECT_TYPE":"PAYLOAD","ECCENTRICITY":"0.00014320","PERIAPSIS":"546.208","REF_FRAME":"TEME","ARG_OF_PERICENTER":"60.6183","OBJECT_NAME":"STARLINK-1417","CENTER_NAME":"EARTH","RA_OF_ASC_NODE":"54.6404","CLASSIFICATION_TYPE":"U","INCLINATION":"53.0554","MEAN_ELEMENT_THEORY":"SGP4","DECAY_DATE":null,"BSTAR":"-0.00011708000000","LAUNCH_DATE":"2020-06-04","NORAD_CAT_ID":"45693","SITE":"AFETR","ELEMENT_SET_NO":"999","GP_ID":"206213511","SEMIMAJOR_AXIS":"6925.335","EPHEMERIS_TYPE":"0","TLE_LINE2":"2 45693  53.0554  54.6404 0001432  60.6183 299.4949 15.06404455113058","TIME_SYSTEM":"UTC","RCS_SIZE":"LARGE","TLE_LINE1":"1 45693U 20035AN  22166.85192386 -.00002025  00000-0 -11708-3 0  9997","MEAN_MOTION":"15.06404455","MEAN_MOTION_DOT":"-0.00002025","APOAPSIS":"548.192","MEAN_MOTION_DDOT":"0.0000000000000","COUNTRY_CODE":"US","MEAN_ANOMALY":"299.4949"},{"PERIOD":"95.577","ECCENTRICITY":"0.00018270","OBJECT_TYPE":"PAYLOAD","EPOCH":"2022-06-15T09:27:34.627392","REV_AT_EPOCH":"11338","OBJECT_ID":"2020-035AP","FILE":"3496794","PERIAPSIS":"545.220","OBJECT_NAME":"STARLINK-1419","CENTER_NAME":"EARTH","REF_FRAME":"TEME","ARG_OF_PERICENTER":"61.6890","CLASSIFICATION_TYPE":"U","RA_OF_ASC_NODE":"56.6710","MEAN_ELEMENT_THEORY":"SGP4","INCLINATION":"53.0559","BSTAR":"-0.00234890000000","LAUNCH_DATE":"2020-06-04","DECAY_DATE":null,"NORAD_CAT_ID":"45694","SITE":"AFETR","GP_ID":"206204757","ELEMENT_SET_NO":"999","EPHEMERIS_TYPE":"0","SEMIMAJOR_AXIS":"6924.620","TIME_SYSTEM":"UTC","TLE_LINE2":"2 45694  53.0559  56.6710 0001827  61.6890 298.4284 15.06637683113388","TLE_LINE1":"1 45694U 20035AP  22166.39415078 -.00035321  00000-0 -23489-2 0  9996","RCS_SIZE":"LARGE","MEAN_MOTION_DDOT":"0.0000000000000","MEAN_ANOMALY":"298.4284","COUNTRY_CODE":"US","MEAN_MOTION":"15.06637683","APOAPSIS":"547.750","MEAN_MOTION_DOT":"-0.00035321"}];
